STARLINK-5905           
1 55986U 23042A   26152.49807710  .00002614  00000+0  10447-3 0  9997
2 55986  43.0013 306.5652 0001857 258.3102 101.7541 15.27587764176505
STARLINK-5915           
1 55987U 23042B   26154.76604358 -.00000102  00000+0  58371-5 0  9994
2 55987  43.0023 293.4974 0002445 231.2057 128.8576 15.27576654176033
STARLINK-5916           
1 55988U 23042C   26152.92074769  .00000621  00000+0  32102-4 0  9996
2 55988  43.0028 308.0041 0001605 267.2940  92.7728 15.27578645175707
STARLINK-5947           
1 55989U 23042D   26154.82758044 -.00000058  00000+0  74052-5 0  9999
2 55989  43.0013 293.1095 0001023 287.4010  72.6730 15.27577005176048
STARLINK-5946           
1 55990U 23042E   26152.72495921 -.00003927  00000+0 -13335-3 0  9994
2 55990  42.9993 304.8462 0000306 225.4068 134.6759 15.27563585175723
STARLINK-5948           
1 55991U 23042F   26154.76397384  .00000000  00000+0  95560-5 0  9994
2 55991  43.0064 290.0802 0002028 284.7164  75.3463 15.27575889176079
STARLINK-5969           
1 55993U 23042H   26152.86213118  .00000342  00000+0  21973-4 0  9992
2 55993  43.0059 304.1565 0001863 268.0344  92.0294 15.27576106175743
STARLINK-5956           
1 55994U 23042J   26152.48137508  .00001339  00000+0  58178-4 0  9993
2 55994  43.0058 306.4567 0001884 271.3499  88.7137 15.27576325175685
STARLINK-5903           
1 55996U 23042L   26153.63520353  .00003397  00000+0  13294-3 0  9992
2 55996  43.0007 299.6383 0001702 292.7385  67.3287 15.27574858175857
STARLINK-5902           
1 55998U 23042N   26152.72364905 -.00000127  00000+0  49071-5 0  9995
2 55998  43.0035 304.8288 0001763 269.2238  90.8411 15.27574493175727
STARLINK-5901           
1 55999U 23042P   26152.75063132  .00001205  00000+0  53329-4 0  9994
2 55999  43.0044 305.0320 0001565 264.6072  95.4601 15.27577519175727
STARLINK-5910           
1 56000U 23042Q   26152.73392754  .00000382  00000+0  23420-4 0  9995
2 56000  43.0040 304.9006 0001077 276.7773  83.2956 15.27575779175720
STARLINK-5944           
1 56001U 23042R   26155.16670139  .00000563  00000+0  29974-4 0  9993
2 56001  43.0009 295.3591 0001538 271.6763 192.7739 15.27583028  5849
STARLINK-5799           
1 56002U 23042S   26152.73006743  .00002434  00000+0  97944-4 0  9999
2 56002  43.0032 304.8718 0000931 257.3139 102.7609 15.27580019175726
STARLINK-5789           
1 56003U 23042T   26152.75833990  .00000936  00000+0  43567-4 0  9991
2 56003  43.0050 305.0805 0002686 264.7937  95.2609 15.27576202175729
STARLINK-5787           
1 56004U 23042U   26152.74628277  .00000763  00000+0  37262-4 0  9994
2 56004  43.0049 308.4112 0001899 264.0180  96.0455 15.27576613175683
STARLINK-5801           
1 56005U 23042V   26152.72073329  .00001458  00000+0  62511-4 0  9992
2 56005  43.0027 309.0722 0001572 272.0875  87.9797 15.27577182175671
STARLINK-5794           
1 56006U 23042W   26155.00002315 -.00002897  00000+0 -98299-4 0  9996
2 56006  43.0004 299.7201 0001662 271.8497 352.2392 15.26754715  5827
STARLINK-5806           
1 56007U 23042X   26152.73778288  .00001054  00000+0  47822-4 0  9991
2 56007  43.0053 304.9320 0001887 278.7249  81.3389 15.27574464175728
STARLINK-5803           
1 56008U 23042Y   26152.72753480  .00002545  00000+0  10211-3 0  9995
2 56008  43.0004 304.8458 0001058 188.6618 171.4216 15.27534676175715
STARLINK-5964           
1 56009U 23042Z   26152.73985944  .00000264  00000+0  19138-4 0  9993
2 56009  43.0044 308.3616 0001589 264.8669  95.2001 15.27575160175681
STARLINK-5968           
1 56010U 23042AA  26152.74163354  .00001401  00000+0  60436-4 0  9990
2 56010  43.0063 304.9565 0002374 261.3684  98.6899 15.27577434175724
STARLINK-5936           
1 56011U 23042AB  26152.68960688  .00001819  00000+0  75641-4 0  9996
2 56011  43.0035 290.7215 0001396 272.6686  87.4006 15.27569443175882
STARLINK-5940           
1 56012U 23042AC  26152.67161740  .00000231  00000+0  17914-4 0  9994
2 56012  43.0011 290.5894 0001111 267.8044  92.2680 15.27576227175887
STARLINK-5941           
1 56013U 23042AD  26154.45196548 -.00000170  00000+0  33807-5 0  9990
2 56013  43.0066 295.4299 0002507 275.8887  84.1679 15.27574633175983
STARLINK-5942           
1 56014U 23042AE  26152.69345626  .00001078  00000+0  48697-4 0  9997
2 56014  43.0039 290.7513 0001306 266.0841  93.9862 15.27581165175888
STARLINK-5939           
1 56015U 23042AF  26152.67932636 -.00000001  00000+0  95095-5 0  9990
2 56015  43.0035 290.6478 0001703 265.2164  94.8494 15.27572716175887
STARLINK-5943           
1 56016U 23042AG  26152.46146740  .00000509  00000+0  28031-4 0  9998
2 56016  43.0027 292.4355 0001649 270.5549  89.5114 15.27577652175848
STARLINK-5934           
1 56017U 23042AH  26152.70759351  .00001044  00000+0  47460-4 0  9996
2 56017  43.0050 290.8561 0002285 287.2874  72.7728 15.27577152175883
STARLINK-5945           
1 56018U 23042AJ  26152.45763561  .00000195  00000+0  16627-4 0  9994
2 56018  43.0033 292.4082 0001198 241.4618 118.6113 15.27557577175844
