OBJECT_NAME,OBJECT_ID,EPOCH,MEAN_MOTION,ECCENTRICITY,INCLINATION,RA_OF_ASC_NODE,ARG_OF_PERICENTER,MEAN_ANOMALY,EPHEMERIS_TYPE,CLASSIFICATION_TYPE,NORAD_CAT_ID,ELEMENT_SET_NO,REV_AT_EPOCH,BSTAR,MEAN_MOTION_DOT,MEAN_MOTION_DDOT
STARLINK-5905,2023-042A,2026-06-01T11:57:13.861440,15.27587764,.00018579,43.0013,306.5652,258.3102,101.7541,0,U,55986,999,17650,.10447047E-3,.2614E-4,0
STARLINK-5915,2023-042B,2026-06-03T18:23:06.165312,15.27576654,.00024452,43.0023,293.4974,231.2057,128.8576,0,U,55987,999,17603,.583714E-5,-.102E-5,0
STARLINK-5916,2023-042C,2026-06-01T22:05:52.600416,15.27578645,.00016057,43.0028,308.0041,267.2940,92.7728,0,U,55988,999,17570,.32101586E-4,.621E-5,0
STARLINK-5947,2023-042D,2026-06-03T19:51:42.950016,15.27577005,.00010236,43.0013,293.1095,287.4010,72.6730,0,U,55989,999,17604,.7405247E-5,-.58E-6,0
STARLINK-5946,2023-042E,2026-06-01T17:23:56.475744,15.27563585,.00003069,42.9993,304.8462,225.4068,134.6759,0,U,55990,999,17572,-.13335411E-3,-.3927E-4,0
STARLINK-5948,2023-042F,2026-06-03T18:20:07.339776,15.27575889,.00020281,43.0064,290.0802,284.7164,75.3463,0,U,55991,999,17607,.9556044E-5,0,0
STARLINK-5969,2023-042H,2026-06-01T20:41:28.133952,15.27576106,.00018638,43.0059,304.1565,268.0344,92.0294,0,U,55993,999,17574,.21972726E-4,.342E-5,0
STARLINK-5956,2023-042J,2026-06-01T11:33:10.806912,15.27576325,.0001884,43.0058,306.4567,271.3499,88.7137,0,U,55994,999,17568,.58177912E-4,.1339E-4,0
STARLINK-5903,2023-042L,2026-06-02T15:14:41.584992,15.27574858,.00017029,43.0007,299.6383,292.7385,67.3287,0,U,55996,999,17585,.13293986E-3,.3397E-4,0
STARLINK-5902,2023-042N,2026-06-01T17:22:03.277920,15.27574493,.00017639,43.0035,304.8288,269.2238,90.8411,0,U,55998,999,17572,.4907081E-5,-.127E-5,0
STARLINK-5901,2023-042P,2026-06-01T18:00:54.546048,15.27577519,.00015654,43.0044,305.0320,264.6072,95.4601,0,U,55999,999,17572,.53329413E-4,.1205E-4,0
STARLINK-5910,2023-042Q,2026-06-01T17:36:51.339456,15.27575779,.00010777,43.0040,304.9006,276.7773,83.2956,0,U,56000,999,17572,.23420446E-4,.382E-5,0
STARLINK-5944,2023-042R,2026-06-04T04:00:03.000096,15.27583028,.0001538,43.0009,295.3591,271.6763,192.7739,0,U,56001,999,584,.29974E-4,.563E-5,0
STARLINK-5799,2023-042S,2026-06-01T17:31:17.825952,15.27580019,.00009313,43.0032,304.8718,257.3139,102.7609,0,U,56002,999,17572,.97944482E-4,.2434E-4,0
STARLINK-5789,2023-042T,2026-06-01T18:12:00.567360,15.27576202,.00026862,43.0050,305.0805,264.7937,95.2609,0,U,56003,999,17572,.4356729E-4,.936E-5,0
STARLINK-5787,2023-042U,2026-06-01T17:54:38.831328,15.27576613,.00018996,43.0049,308.4112,264.0180,96.0455,0,U,56004,999,17568,.37262274E-4,.763E-5,0
STARLINK-5801,2023-042V,2026-06-01T17:17:51.356256,15.27577182,.00015728,43.0027,309.0722,272.0875,87.9797,0,U,56005,999,17567,.62510866E-4,.1458E-4,0
STARLINK-5794,2023-042W,2026-06-04T00:00:02.000160,15.26754715,.0001662,43.0004,299.7201,271.8497,352.2392,0,U,56006,999,582,-.98299E-4,-.2897E-4,0
STARLINK-5806,2023-042X,2026-06-01T17:42:24.440832,15.27574464,.00018873,43.0053,304.9320,278.7249,81.3389,0,U,56007,999,17572,.47822216E-4,.1054E-4,0
STARLINK-5803,2023-042Y,2026-06-01T17:27:39.006720,15.27534676,.00010583,43.0004,304.8458,188.6618,171.4216,0,U,56008,999,17571,.10210902E-3,.2545E-4,0
STARLINK-5964,2023-042Z,2026-06-01T17:45:23.855616,15.27575160,.00015895,43.0044,308.3616,264.8669,95.2001,0,U,56009,999,17568,.19137892E-4,.264E-5,0
STARLINK-5968,2023-042AA,2026-06-01T17:47:57.137856,15.27577434,.00023748,43.0063,304.9565,261.3684,98.6899,0,U,56010,999,17572,.60436137E-4,.1401E-4,0
STARLINK-5936,2023-042AB,2026-06-01T16:33:02.034432,15.27569443,.0001396,43.0035,290.7215,272.6686,87.4006,0,U,56011,999,17588,.75640759E-4,.1819E-4,0
STARLINK-5940,2023-042AC,2026-06-01T16:07:07.743360,15.27576227,.00011116,43.0011,290.5894,267.8044,92.2680,0,U,56012,999,17588,.17913975E-4,.231E-5,0
STARLINK-5941,2023-042AD,2026-06-03T10:50:49.817472,15.27574633,.00025072,43.0066,295.4299,275.8887,84.1679,0,U,56013,999,17598,.3380695E-5,-.17E-5,0
STARLINK-5942,2023-042AE,2026-06-01T16:38:34.620864,15.27581165,.00013066,43.0039,290.7513,266.0841,93.9862,0,U,56014,999,17588,.48696944E-4,.1078E-4,0
STARLINK-5939,2023-042AF,2026-06-01T16:18:13.797504,15.27572716,.00017037,43.0035,290.6478,265.2164,94.8494,0,U,56015,999,17588,.9509513E-5,-.1E-7,0
STARLINK-5943,2023-042AG,2026-06-01T11:04:30.783360,15.27577652,.00016495,43.0027,292.4355,270.5549,89.5114,0,U,56016,999,17584,.28031217E-4,.509E-5,0
STARLINK-5934,2023-042AH,2026-06-01T16:58:56.079264,15.27577152,.00022856,43.0050,290.8561,287.2874,72.7728,0,U,56017,999,17588,.47459774E-4,.1044E-4,0
STARLINK-5945,2023-042AJ,2026-06-01T10:58:59.716704,15.27557577,.0001198,43.0033,292.4082,241.4618,118.6113,0,U,56018,999,17584,.16627373E-4,.195E-5,0
